[{"OBJECT_NAME":"REIMEI (INDEX)","OBJECT_ID":"2005-031B","EPOCH":"2026-03-09T21:15:47.083968","MEAN_MOTION":15.09838737,"ECCENTRICITY":0.00209792,"INCLINATION":97.9988,"RA_OF_ASC_NODE":188.389,"ARG_OF_PERICENTER":89.5619,"MEAN_ANOMALY":270.8013,"EPHEMERIS_TYPE":0,"CLASSIFICATION_TYPE":"U","NORAD_CAT_ID":28810,"ELEMENT_SET_NO":999,"REV_AT_EPOCH":11600,"BSTAR":0.00050498736,"MEAN_MOTION_DOT":8.144e-5,"MEAN_MOTION_DDOT":0},{"OBJECT_NAME":"STARLINK-5413","OBJECT_ID":"2022-175BC","EPOCH":"2026-03-09T01:26:35.019456","MEAN_MOTION":15.08838431,"ECCENTRICITY":0.00014623,"INCLINATION":53.2183,"RA_OF_ASC_NODE":17.1182,"ARG_OF_PERICENTER":89.8611,"MEAN_ANOMALY":270.2549,"EPHEMERIS_TYPE":0,"CLASSIFICATION_TYPE":"U","NORAD_CAT_ID":54808,"ELEMENT_SET_NO":999,"REV_AT_EPOCH":18024,"BSTAR":2.3896267e-5,"MEAN_MOTION_DOT":9.2e-7,"MEAN_MOTION_DDOT":0}]
